{
    "CCSDS_OMM_VERS": "3.0",
    "COMMENT": "GENERATED VIA SPACE-TRACK.ORG API",
    "CREATION_DATE": "2025-05-22T17:14:14",
    "ORIGINATOR": "18 SPCS",
    "OBJECT_NAME": "GALILEO 26 (2C2)",
    "OBJECT_ID": "2018-060B",
    "CENTER_NAME": "EARTH",
    "REF_FRAME": "TEME",
    "TIME_SYSTEM": "UTC",
    "MEAN_ELEMENT_THEORY": "SGP4",
    "EPOCH": "2025-05-21T10:41:25.310112",
    "MEAN_MOTION": "1.70475396",
    "ECCENTRICITY": "0.00016720",
    "INCLINATION": "57.2765",
    "RA_OF_ASC_NODE": "352.3561",
    "ARG_OF_PERICENTER": "265.1438",
    "MEAN_ANOMALY": "94.8798",
    "EPHEMERIS_TYPE": "0",
    "CLASSIFICATION_TYPE": "U",
    "NORAD_CAT_ID": "43565",
    "ELEMENT_SET_NO": "999",
    "REV_AT_EPOCH": "4253",
    "BSTAR": "0.00000000000000",
    "MEAN_MOTION_DOT": "-0.00000066",
    "MEAN_MOTION_DDOT": "0.0000000000000",
    "SEMIMAJOR_AXIS": "29600.158",
    "PERIOD": "844.697",
    "APOAPSIS": "23226.973",
    "PERIAPSIS": "23217.074",
    "OBJECT_TYPE": "PAYLOAD",
    "RCS_SIZE": "LARGE",
    "COUNTRY_CODE": "ESA",
    "LAUNCH_DATE": "2018-07-25",
    "SITE": "FRGUI",
    "DECAY_DATE": null,
    "FILE": "4736220",
    "GP_ID": "288145045",
    "TLE_LINE0": "0 GALILEO 26 (2C2)",
    "TLE_LINE1": "1 43565U 18060B   25141.44543183 -.00000066  00000-0  00000-0 0  9996",
    "TLE_LINE2": "2 43565  57.2765 352.3561 0001672 265.1438  94.8798  1.70475396 42538"
}